QIANFAN-73              
1 63159U 25046A   25215.21429281  .00000128  00000+0  17937-3 0  9995
2 63159  88.9858 333.5759 0016532 139.9251 220.3123 13.50958878 29653
QIANFAN-74              
1 63160U 25046B   25215.49413928  .00000142  00000+0  20082-3 0  9999
2 63160  88.9858 333.4359 0001958 102.9015 257.2355 13.50963531 29753
QIANFAN-75              
1 63161U 25046C   25214.81522419  .00000147  00000+0  20869-3 0  9999
2 63161  88.9859 333.7372 0017614 144.0943 216.1395 13.50959747 29534
QIANFAN-76              
1 63162U 25046D   25214.81093913  .00000158  00000+0  22519-3 0  9998
2 63162  88.9859 333.7188 0015177 143.9735 216.2442 13.50955812 29543
QIANFAN-77              
1 63163U 25046E   25215.16236000  .00000339  00000+0  23740-3 0  9992
2 63163  88.9856 332.7683 0016693 127.8793 232.3896 13.96006415 30099
QIANFAN-78              
1 63164U 25046F   25215.51881196  .00000150  00000+0  21317-3 0  9993
2 63164  88.9858 333.5117 0016544 144.7072 215.5178 13.50959397 29715
QIANFAN-79              
1 63165U 25046G   25214.80687509  .00000166  00000+0  23800-3 0  9993
2 63165  88.9862 333.6870 0016210 144.9342 215.2879 13.50961294 29578
QIANFAN-80              
1 63166U 25046H   25214.82344747  .00000136  00000+0  19139-3 0  9997
2 63166  88.9859 333.3959 0015109 148.4876 211.7183 13.50961498 29729
